CCSDS_OMM_VERS = 2.0
CREATION_DATE  = 
ORIGINATOR     = 

OBJECT_NAME    = STARLINK-35575
OBJECT_ID      = 2025-240V
CENTER_NAME    = EARTH
REF_FRAME      = TEME
TIME_SYSTEM    = UTC
MEAN_ELEMENT_THEORY = SGP/SGP4

EPOCH          = 2025-11-14T20:00:01.000224
MEAN_MOTION    = 15.54461666
ECCENTRICITY   = .0001325
INCLINATION    = 53.1603
RA_OF_ASC_NODE = 237.8813
ARG_OF_PERICENTER = 108.5230
MEAN_ANOMALY   = 159.1716

EPHEMERIS_TYPE = 0
CLASSIFICATION_TYPE = U
NORAD_CAT_ID   = 66165
ELEMENT_SET_NO = 999
REV_AT_EPOCH   = 441
BSTAR          = -.34337E-1
MEAN_MOTION_DOT = -.2049988E-1
MEAN_MOTION_DDOT = 0

CCSDS_OMM_VERS = 2.0
CREATION_DATE  = 
ORIGINATOR     = 

OBJECT_NAME    = STARLINK-35624
OBJECT_ID      = 2025-240W
CENTER_NAME    = EARTH
REF_FRAME      = TEME
TIME_SYSTEM    = UTC
MEAN_ELEMENT_THEORY = SGP/SGP4

EPOCH          = 2025-11-14T20:00:01.000224
MEAN_MOTION    = 15.54437713
ECCENTRICITY   = .0001172
INCLINATION    = 53.1605
RA_OF_ASC_NODE = 237.8696
ARG_OF_PERICENTER = 115.3584
MEAN_ANOMALY   = 158.1026

EPHEMERIS_TYPE = 0
CLASSIFICATION_TYPE = U
NORAD_CAT_ID   = 66166
ELEMENT_SET_NO = 999
REV_AT_EPOCH   = 441
BSTAR          = -.33887E-1
MEAN_MOTION_DOT = -.2024279E-1
MEAN_MOTION_DDOT = 0

CCSDS_OMM_VERS = 2.0
CREATION_DATE  = 
ORIGINATOR     = 

OBJECT_NAME    = STARLINK-35641
OBJECT_ID      = 2025-240X
CENTER_NAME    = EARTH
REF_FRAME      = TEME
TIME_SYSTEM    = UTC
MEAN_ELEMENT_THEORY = SGP/SGP4

EPOCH          = 2025-11-14T20:00:01.000224
MEAN_MOTION    = 15.54461693
ECCENTRICITY   = .0001308
INCLINATION    = 53.1604
RA_OF_ASC_NODE = 237.8733
ARG_OF_PERICENTER = 114.9434
MEAN_ANOMALY   = 156.5835

EPHEMERIS_TYPE = 0
CLASSIFICATION_TYPE = U
NORAD_CAT_ID   = 66167
ELEMENT_SET_NO = 999
REV_AT_EPOCH   = 441
BSTAR          = -.34332E-1
MEAN_MOTION_DOT = -.204972E-1
MEAN_MOTION_DDOT = 0

CCSDS_OMM_VERS = 2.0
CREATION_DATE  = 
ORIGINATOR     = 

OBJECT_NAME    = STARLINK-35578
OBJECT_ID      = 2025-240Y
CENTER_NAME    = EARTH
REF_FRAME      = TEME
TIME_SYSTEM    = UTC
MEAN_ELEMENT_THEORY = SGP/SGP4

EPOCH          = 2025-11-14T20:00:01.000224
MEAN_MOTION    = 15.54464661
ECCENTRICITY   = .0001369
INCLINATION    = 53.1605
RA_OF_ASC_NODE = 237.8574
ARG_OF_PERICENTER = 109.4823
MEAN_ANOMALY   = 169.7108

EPHEMERIS_TYPE = 0
CLASSIFICATION_TYPE = U
NORAD_CAT_ID   = 66168
ELEMENT_SET_NO = 999
REV_AT_EPOCH   = 441
BSTAR          = -.34405E-1
MEAN_MOTION_DOT = -.2053817E-1
MEAN_MOTION_DDOT = 0

CCSDS_OMM_VERS = 2.0
CREATION_DATE  = 
ORIGINATOR     = 

OBJECT_NAME    = STARLINK-35638
OBJECT_ID      = 2025-240Z
CENTER_NAME    = EARTH
REF_FRAME      = TEME
TIME_SYSTEM    = UTC
MEAN_ELEMENT_THEORY = SGP/SGP4

EPOCH          = 2025-11-14T20:00:01.000224
MEAN_MOTION    = 15.54462651
ECCENTRICITY   = .0001308
INCLINATION    = 53.1605
RA_OF_ASC_NODE = 237.8648
ARG_OF_PERICENTER = 109.2437
MEAN_ANOMALY   = 166.1179

EPHEMERIS_TYPE = 0
CLASSIFICATION_TYPE = U
NORAD_CAT_ID   = 66169
ELEMENT_SET_NO = 999
REV_AT_EPOCH   = 441
BSTAR          = -.34364E-1
MEAN_MOTION_DOT = -.2051478E-1
MEAN_MOTION_DDOT = 0

CCSDS_OMM_VERS = 2.0
CREATION_DATE  = 
ORIGINATOR     = 

OBJECT_NAME    = STARLINK-35585
OBJECT_ID      = 2025-240AA
CENTER_NAME    = EARTH
REF_FRAME      = TEME
TIME_SYSTEM    = UTC
MEAN_ELEMENT_THEORY = SGP/SGP4

EPOCH          = 2025-11-14T20:00:01.000224
MEAN_MOTION    = 15.54464590
ECCENTRICITY   = .0001355
INCLINATION    = 53.1605
RA_OF_ASC_NODE = 237.8535
ARG_OF_PERICENTER = 108.3916
MEAN_ANOMALY   = 172.7187

EPHEMERIS_TYPE = 0
CLASSIFICATION_TYPE = U
NORAD_CAT_ID   = 66170
ELEMENT_SET_NO = 999
REV_AT_EPOCH   = 441
BSTAR          = -.34403E-1
MEAN_MOTION_DOT = -.2053697E-1
MEAN_MOTION_DDOT = 0

CCSDS_OMM_VERS = 2.0
CREATION_DATE  = 
ORIGINATOR     = 

OBJECT_NAME    = STARLINK-35606
OBJECT_ID      = 2025-240AB
CENTER_NAME    = EARTH
REF_FRAME      = TEME
TIME_SYSTEM    = UTC
MEAN_ELEMENT_THEORY = SGP/SGP4

EPOCH          = 2025-11-14T20:00:01.000224
MEAN_MOTION    = 15.54461893
ECCENTRICITY   = .0001258
INCLINATION    = 53.1604
RA_OF_ASC_NODE = 237.8491
ARG_OF_PERICENTER = 115.7647
MEAN_ANOMALY   = 167.2635

EPHEMERIS_TYPE = 0
CLASSIFICATION_TYPE = U
NORAD_CAT_ID   = 66171
ELEMENT_SET_NO = 999
REV_AT_EPOCH   = 441
BSTAR          = -.3435E-1
MEAN_MOTION_DOT = -.2050621E-1
MEAN_MOTION_DDOT = 0

CCSDS_OMM_VERS = 2.0
CREATION_DATE  = 
ORIGINATOR     = 

OBJECT_NAME    = STARLINK-35627
OBJECT_ID      = 2025-240AC
CENTER_NAME    = EARTH
REF_FRAME      = TEME
TIME_SYSTEM    = UTC
MEAN_ELEMENT_THEORY = SGP/SGP4

EPOCH          = 2025-11-14T20:00:01.000224
MEAN_MOTION    = 15.54460461
ECCENTRICITY   = .0001233
INCLINATION    = 53.1605
RA_OF_ASC_NODE = 237.8611
ARG_OF_PERICENTER = 120.9018
MEAN_ANOMALY   = 156.3749

EPHEMERIS_TYPE = 0
CLASSIFICATION_TYPE = U
NORAD_CAT_ID   = 66172
ELEMENT_SET_NO = 999
REV_AT_EPOCH   = 441
BSTAR          = -.34293E-1
MEAN_MOTION_DOT = -.2047477E-1
MEAN_MOTION_DDOT = 0

CCSDS_OMM_VERS = 2.0
CREATION_DATE  = 
ORIGINATOR     = 

OBJECT_NAME    = STARLINK-35634
OBJECT_ID      = 2025-240AD
CENTER_NAME    = EARTH
REF_FRAME      = TEME
TIME_SYSTEM    = UTC
MEAN_ELEMENT_THEORY = SGP/SGP4

EPOCH          = 2025-11-14T20:00:01.000224
MEAN_MOTION    = 15.54461951
ECCENTRICITY   = .0001244
INCLINATION    = 53.1602
RA_OF_ASC_NODE = 237.8452
ARG_OF_PERICENTER = 115.0024
MEAN_ANOMALY   = 169.9430

EPHEMERIS_TYPE = 0
CLASSIFICATION_TYPE = U
NORAD_CAT_ID   = 66173
ELEMENT_SET_NO = 999
REV_AT_EPOCH   = 441
BSTAR          = -.34362E-1
MEAN_MOTION_DOT = -.2051252E-1
MEAN_MOTION_DDOT = 0

CCSDS_OMM_VERS = 2.0
CREATION_DATE  = 
ORIGINATOR     = 

OBJECT_NAME    = HTV-X1
OBJECT_ID      = 2025-241A
CENTER_NAME    = EARTH
REF_FRAME      = TEME
TIME_SYSTEM    = UTC
MEAN_ELEMENT_THEORY = SGP/SGP4

EPOCH          = 2025-11-14T05:23:38.944320
MEAN_MOTION    = 15.49650045
ECCENTRICITY   = .00041947
INCLINATION    = 51.6329
RA_OF_ASC_NODE = 283.6283
ARG_OF_PERICENTER = 68.4296
MEAN_ANOMALY   = 291.7139

EPHEMERIS_TYPE = 0
CLASSIFICATION_TYPE = U
NORAD_CAT_ID   = 66174
ELEMENT_SET_NO = 999
REV_AT_EPOCH   = 145
BSTAR          = .24659261E-3
MEAN_MOTION_DOT = .13472E-3
MEAN_MOTION_DDOT = 0

CCSDS_OMM_VERS = 2.0
CREATION_DATE  = 
ORIGINATOR     = 

OBJECT_NAME    = GAOFEN-14 02
OBJECT_ID      = 2025-242A
CENTER_NAME    = EARTH
REF_FRAME      = TEME
TIME_SYSTEM    = UTC
MEAN_ELEMENT_THEORY = SGP/SGP4

EPOCH          = 2025-11-14T11:10:24.597408
MEAN_MOTION    = 15.27766001
ECCENTRICITY   = .0011017
INCLINATION    = 97.4386
RA_OF_ASC_NODE = 30.6022
ARG_OF_PERICENTER = 193.9078
MEAN_ANOMALY   = 166.1859

EPHEMERIS_TYPE = 0
CLASSIFICATION_TYPE = U
NORAD_CAT_ID   = 66175
ELEMENT_SET_NO = 999
REV_AT_EPOCH   = 295
BSTAR          = .52318E-3
MEAN_MOTION_DOT = .14152E-3
MEAN_MOTION_DDOT = 0

CCSDS_OMM_VERS = 2.0
CREATION_DATE  = 
ORIGINATOR     = 

OBJECT_NAME    = CZ-3B R/B
OBJECT_ID      = 2025-242B
CENTER_NAME    = EARTH
REF_FRAME      = TEME
TIME_SYSTEM    = UTC
MEAN_ELEMENT_THEORY = SGP/SGP4

EPOCH          = 2025-11-05T15:49:27.402816
MEAN_MOTION    = 15.41457457
ECCENTRICITY   = .01037786
INCLINATION    = 97.4571
RA_OF_ASC_NODE = 21.8726
ARG_OF_PERICENTER = 5.1082
MEAN_ANOMALY   = 355.1197

EPHEMERIS_TYPE = 0
CLASSIFICATION_TYPE = U
NORAD_CAT_ID   = 66176
ELEMENT_SET_NO = 999
REV_AT_EPOCH   = 162
BSTAR          = .58814912E-3
MEAN_MOTION_DOT = .29904E-3
MEAN_MOTION_DDOT = 0

