STARLINK-35575          
1 66165U 25240V   25318.83334491 -.02049988  00000+0 -34337-1 0  9993
2 66165  53.1603 237.8813 0001325 108.5230 159.1716 15.54461666  4419
STARLINK-35624          
1 66166U 25240W   25318.83334491 -.02024279  00000+0 -33887-1 0  9999
2 66166  53.1605 237.8696 0001172 115.3584 158.1026 15.54437713  4418
STARLINK-35641          
1 66167U 25240X   25318.83334491 -.02049720  00000+0 -34332-1 0  9994
2 66167  53.1604 237.8733 0001308 114.9434 156.5835 15.54461693  4414
STARLINK-35578          
1 66168U 25240Y   25318.83334491 -.02053817  00000+0 -34405-1 0  9998
2 66168  53.1605 237.8574 0001369 109.4823 169.7108 15.54464661  4414
STARLINK-35638          
1 66169U 25240Z   25318.83334491 -.02051478  00000+0 -34364-1 0  9994
2 66169  53.1605 237.8648 0001308 109.2437 166.1179 15.54462651  4415
STARLINK-35585          
1 66170U 25240AA  25318.83334491 -.02053697  00000+0 -34403-1 0  9995
2 66170  53.1605 237.8535 0001355 108.3916 172.7187 15.54464590  4412
STARLINK-35606          
1 66171U 25240AB  25318.83334491 -.02050621  00000+0 -34350-1 0  9991
2 66171  53.1604 237.8491 0001258 115.7647 167.2635 15.54461893  4418
STARLINK-35627          
1 66172U 25240AC  25318.83334491 -.02047477  00000+0 -34293-1 0  9993
2 66172  53.1605 237.8611 0001233 120.9018 156.3749 15.54460461  4412
STARLINK-35634          
1 66173U 25240AD  25318.83334491 -.02051252  00000+0 -34362-1 0  9997
2 66173  53.1602 237.8452 0001244 115.0024 169.9430 15.54461951  4419
HTV-X1                  
1 66174U 25241A   25318.22475630  .00013472  00000+0  24659-3 0  9991
2 66174  51.6329 283.6283 0004194  68.4296 291.7139 15.49650045  1458
GAOFEN-14 02            
1 66175U 25242A   25318.46556247  .00014152  00000+0  52318-3 0  9992
2 66175  97.4386  30.6022 0011017 193.9078 166.1859 15.27766001  2951
CZ-3B R/B               
1 66176U 25242B   25309.65934494  .00029904  00000+0  58815-3 0  9997
2 66176  97.4571  21.8726 0103778   5.1082 355.1197 15.41457457  1622
